{
  "type": "FeatureCollection",
  "features": [
    {
      "type": "Feature",
      "properties": {
        "norad_id": 37836,
        "name": "EUTELSAT 16A",
        "group": "eutelsat",
        "lat": -0.08116617326355623,
        "lon": -108.24106786077083,
        "alt_km": 35760.03076412896,
        "timestamp": "2025-12-03T10:52:57.121368+00:00",
        "meta_object_name": "EUTELSAT 16A",
        "meta_object_id": "2011-057A",
        "meta_epoch": "2025-12-03T01:50:43.931040",
        "meta_mean_motion": 1.00273643,
        "meta_eccentricity": 0.0006062,
        "meta_inclination": 0.0591,
        "meta_ra_of_asc_node": 346.4882,
        "meta_arg_of_pericenter": 272.1733,
        "meta_mean_anomaly": 217.2026,
        "meta_ephemeris_type": 0,
        "meta_classification_type": "U",
        "meta_norad_cat_id": 37836,
        "meta_element_set_no": 999,
        "meta_rev_at_epoch": 536,
        "meta_bstar": 0,
        "meta_mean_motion_dot": 1.24e-06,
        "meta_mean_motion_ddot": 0,
        "tle_line1": "1 37836U 11057A   25337.07689735  .00000124  00000+0  00000+0 0  9991",
        "tle_line2": "2 37836   0.0591 346.4882 0006062 272.1733 217.2026  1.00273643  5368"
      },
      "geometry": {
        "type": "Point",
        "coordinates": [
          -108.24106786077083,
          -0.08116617326355623
        ]
      }
    },
    {
      "type": "Feature",
      "properties": {
        "norad_id": 38992,
        "name": "EUTELSAT 21B",
        "group": "eutelsat",
        "lat": -0.089507644553682,
        "lon": -102.63930649445328,
        "alt_km": 35771.345297358166,
        "timestamp": "2025-12-03T10:52:57.121380+00:00",
        "meta_object_name": "EUTELSAT 21B",
        "meta_object_id": "2012-062B",
        "meta_epoch": "2025-12-03T01:52:21.275328",
        "meta_mean_motion": 1.0027366,
        "meta_eccentricity": 0.0003378,
        "meta_inclination": 0.0681,
        "meta_ra_of_asc_node": 345.0491,
        "meta_arg_of_pericenter": 280.0198,
        "meta_mean_anomaly": 216.8005,
        "meta_ephemeris_type": 0,
        "meta_classification_type": "U",
        "meta_norad_cat_id": 38992,
        "meta_element_set_no": 999,
        "meta_rev_at_epoch": 4786,
        "meta_bstar": 0,
        "meta_mean_motion_dot": 1.5e-06,
        "meta_mean_motion_ddot": 0,
        "tle_line1": "1 38992U 12062B   25337.07802402  .00000150  00000+0  00000+0 0  9999",
        "tle_line2": "2 38992   0.0681 345.0491 0003378 280.0198 216.8005  1.00273660 47865"
      },
      "geometry": {
        "type": "Point",
        "coordinates": [
          -102.63930649445328,
          -0.089507644553682
        ]
      }
    },
    {
      "type": "Feature",
      "properties": {
        "norad_id": 39020,
        "name": "EUTELSAT 70B",
        "group": "eutelsat",
        "lat": -0.056614270907855514,
        "lon": -53.703063508258346,
        "alt_km": 35778.2238842636,
        "timestamp": "2025-12-03T10:52:57.121393+00:00",
        "meta_object_name": "EUTELSAT 70B",
        "meta_object_id": "2012-069A",
        "meta_epoch": "2025-12-03T00:23:35.428992",
        "meta_mean_motion": 1.00271587,
        "meta_eccentricity": 0.0004339,
        "meta_inclination": 0.0628,
        "meta_ra_of_asc_node": 0.7557,
        "meta_arg_of_pericenter": 240.9214,
        "meta_mean_anomaly": 266.8292,
        "meta_ephemeris_type": 0,
        "meta_classification_type": "U",
        "meta_norad_cat_id": 39020,
        "meta_element_set_no": 999,
        "meta_rev_at_epoch": 4754,
        "meta_bstar": 0,
        "meta_mean_motion_dot": -2.4e-07,
        "meta_mean_motion_ddot": 0,
        "tle_line1": "1 39020U 12069A   25337.01638228 -.00000024  00000+0  00000+0 0  9997",
        "tle_line2": "2 39020   0.0628   0.7557 0004339 240.9214 266.8292  1.00271587 47543"
      },
      "geometry": {
        "type": "Point",
        "coordinates": [
          -53.703063508258346,
          -0.056614270907855514
        ]
      }
    },
    {
      "type": "Feature",
      "properties": {
        "norad_id": 39122,
        "name": "EUTELSAT 117 WEST A",
        "group": "eutelsat",
        "lat": 0.03221372987561285,
        "lon": 118.93966457010488,
        "alt_km": 35795.351318751105,
        "timestamp": "2025-12-03T10:52:57.121407+00:00",
        "meta_object_name": "EUTELSAT 117 WEST A",
        "meta_object_id": "2013-012A",
        "meta_epoch": "2025-12-03T04:16:38.815392",
        "meta_mean_motion": 1.00271885,
        "meta_eccentricity": 0.0003147,
        "meta_inclination": 0.0369,
        "meta_ra_of_asc_node": 55.6369,
        "meta_arg_of_pericenter": 197.6268,
        "meta_mean_anomaly": 126.3797,
        "meta_ephemeris_type": 0,
        "meta_classification_type": "U",
        "meta_norad_cat_id": 39122,
        "meta_element_set_no": 999,
        "meta_rev_at_epoch": 4646,
        "meta_bstar": 0,
        "meta_mean_motion_dot": 6e-08,
        "meta_mean_motion_ddot": 0,
        "tle_line1": "1 39122U 13012A   25337.17822703  .00000006  00000+0  00000+0 0  9998",
        "tle_line2": "2 39122   0.0369  55.6369 0003147 197.6268 126.3797  1.00271885 46462"
      },
      "geometry": {
        "type": "Point",
        "coordinates": [
          118.93966457010488,
          0.03221372987561285
        ]
      }
    },
    {
      "type": "Feature",
      "properties": {
        "norad_id": 39163,
        "name": "EUTELSAT 7B",
        "group": "eutelsat",
        "lat": -0.08259794430518952,
        "lon": -117.2893639526215,
        "alt_km": 35780.241316289364,
        "timestamp": "2025-12-03T10:52:57.121419+00:00",
        "meta_object_name": "EUTELSAT 7B",
        "meta_object_id": "2013-022A",
        "meta_epoch": "2025-12-03T01:48:14.168736",
        "meta_mean_motion": 1.00269211,
        "meta_eccentricity": 0.000416,
        "meta_inclination": 0.0674,
        "meta_ra_of_asc_node": 359.1654,
        "meta_arg_of_pericenter": 311.7884,
        "meta_mean_anomaly": 155.2781,
        "meta_ephemeris_type": 0,
        "meta_classification_type": "U",
        "meta_norad_cat_id": 39163,
        "meta_element_set_no": 999,
        "meta_rev_at_epoch": 4599,
        "meta_bstar": 0,
        "meta_mean_motion_dot": 6.7e-07,
        "meta_mean_motion_ddot": 0,
        "tle_line1": "1 39163U 13022A   25337.07516399  .00000067  00000+0  00000+0 0  9991",
        "tle_line2": "2 39163   0.0674 359.1654 0004160 311.7884 155.2781  1.00269211 45995"
      },
      "geometry": {
        "type": "Point",
        "coordinates": [
          -117.2893639526215,
          -0.08259794430518952
        ]
      }
    },
    {
      "type": "Feature",
      "properties": {
        "norad_id": 39612,
        "name": "EXPRESS-AT1",
        "group": "eutelsat",
        "lat": -0.007973763725318776,
        "lon": -68.23863544741896,
        "alt_km": 35787.560528859634,
        "timestamp": "2025-12-03T10:52:57.121446+00:00",
        "meta_object_name": "EXPRESS-AT1",
        "meta_object_id": "2014-010A",
        "meta_epoch": "2025-12-03T02:55:51.885120",
        "meta_mean_motion": 1.00269797,
        "meta_eccentricity": 3.08e-05,
        "meta_inclination": 0.016,
        "meta_ra_of_asc_node": 295.0879,
        "meta_arg_of_pericenter": 219.4551,
        "meta_mean_anomaly": 17.6455,
        "meta_ephemeris_type": 0,
        "meta_classification_type": "U",
        "meta_norad_cat_id": 39612,
        "meta_element_set_no": 999,
        "meta_rev_at_epoch": 4285,
        "meta_bstar": 0,
        "meta_mean_motion_dot": 9.8e-07,
        "meta_mean_motion_ddot": 0,
        "tle_line1": "1 39612U 14010A   25337.12212830  .00000098  00000+0  00000+0 0  9991",
        "tle_line2": "2 39612   0.0160 295.0879 0000308 219.4551  17.6455  1.00269797 42856"
      },
      "geometry": {
        "type": "Point",
        "coordinates": [
          -68.23863544741896,
          -0.007973763725318776
        ]
      }
    },
    {
      "type": "Feature",
      "properties": {
        "norad_id": 39613,
        "name": "EXPRESS-AT2",
        "group": "eutelsat",
        "lat": 0.038396156999545,
        "lon": 15.636095027021227,
        "alt_km": 35785.954754104736,
        "timestamp": "2025-12-03T10:52:57.121461+00:00",
        "meta_object_name": "EXPRESS-AT2",
        "meta_object_id": "2014-010B",
        "meta_epoch": "2025-12-03T04:08:42.090432",
        "meta_mean_motion": 1.00271892,
        "meta_eccentricity": 0.000125,
        "meta_inclination": 0.0176,
        "meta_ra_of_asc_node": 309.1377,
        "meta_arg_of_pericenter": 338.1326,
        "meta_mean_anomaly": 347.0377,
        "meta_ephemeris_type": 0,
        "meta_classification_type": "U",
        "meta_norad_cat_id": 39613,
        "meta_element_set_no": 999,
        "meta_rev_at_epoch": 4253,
        "meta_bstar": 0,
        "meta_mean_motion_dot": -2.62e-06,
        "meta_mean_motion_ddot": 0,
        "tle_line1": "1 39613U 14010B   25337.17270938 -.00000262  00000+0  00000+0 0  9994",
        "tle_line2": "2 39613   0.0176 309.1377 0001250 338.1326 347.0377  1.00271892 42537"
      },
      "geometry": {
        "type": "Point",
        "coordinates": [
          15.636095027021227,
          0.038396156999545
        ]
      }
    }
  ]
}